[{"OBJECT_NAME":"CATCH-1","OBJECT_ID":"2024-116A","EPOCH":"2026-03-09T23:23:31.862976","MEAN_MOTION":14.84553399,"ECCENTRICITY":0.00043121,"INCLINATION":28.9968,"RA_OF_ASC_NODE":19.2665,"ARG_OF_PERICENTER":129.2844,"MEAN_ANOMALY":230.8133,"EPHEMERIS_TYPE":0,"CLASSIFICATION_TYPE":"U","NORAD_CAT_ID":60088,"ELEMENT_SET_NO":999,"REV_AT_EPOCH":9290,"BSTAR":0.00032499126,"MEAN_MOTION_DOT":2.929e-5,"MEAN_MOTION_DDOT":0},{"OBJECT_NAME":"CZ-6A DEB","OBJECT_ID":"2024-140MR","EPOCH":"2026-03-09T14:41:02.894784","MEAN_MOTION":14.64178322,"ECCENTRICITY":0.0146251,"INCLINATION":89.0574,"RA_OF_ASC_NODE":285.7615,"ARG_OF_PERICENTER":219.9345,"MEAN_ANOMALY":139.1041,"EPHEMERIS_TYPE":0,"CLASSIFICATION_TYPE":"U","NORAD_CAT_ID":61075,"ELEMENT_SET_NO":999,"REV_AT_EPOCH":8242,"BSTAR":0.00045846,"MEAN_MOTION_DOT":2.838e-5,"MEAN_MOTION_DDOT":0}]
